0 JASON 2
1 33105U 08032A   13282.78130520 -.00000065  00000-0 -17818-4 0  7414
2 33105 066.0440 038.2906 0007727 267.9441 254.3986 12.80930631248147
0 JASON 2
1 33105U 08032A   13283.78736640 -.00000058  00000-0  15189-4 0  7421
2 33105 066.0442 036.2011 0007726 267.9730 213.2144 12.80930780248273
0 JASON 2
1 33105U 08032A   13285.81116097 -.00000053  00000-0  34154-4 0  7445
2 33105 066.0445 031.9979 0007752 268.0700 184.6282 12.80930651248539
0 JASON 2
1 33105U 08032A   13286.82695843 -.00000047  00000-0  60582-4 0  7456
2 33105 066.0446 029.8883 0007750 268.1042 188.3325 12.80930584248666
0 JASON 2
1 33105U 08032A   13287.84281404 -.00000018  00000-0  18539-3 0  7466
2 33105 066.0446 027.7786 0007795 268.1836 192.2601 12.80930618248798
0 JASON 2
1 33105U 08032A   13289.08330022 -.00000004  00000-0  24596-3 0  7471
2 33105 066.0445 025.2024 0007818 268.2481 151.9511 12.80930551248954
0 JASON 2
1 33105U 08032A   13290.10430313 -.00000013  00000-0  20779-3 0  7480
2 33105 066.0444 023.0820 0007812 268.2639 179.6749 12.80930631249086
0 JASON 2
1 33105U 08032A   13291.18188231 -.00000013  00000-0  20746-3 0  7493
2 33105 066.0443 020.8441 0007832 268.2756 108.2709 12.80930825249226
0 JASON 2
1 33105U 08032A   13292.53233329 -.00000022  00000-0  17128-3 0  7504
2 33105 066.0441 018.0393 0007868 268.3432 214.9959 12.80930970249391
0 JASON 2
1 33105U 08032A   13293.78488654 -.00000034  00000-0  11571-3 0  7515
2 33105 066.0440 015.4379 0007865 268.3794 230.3551 12.80931241249553
0 JASON 2
1 33105U 08032A   13294.79543567 -.00000050  00000-0  46825-4 0  7522
2 33105 066.0440 013.3391 0007871 268.4299 209.8451 12.80931276249684
0 JASON 2
1 33105U 08032A   13295.81766406 -.00000048  00000-0  57227-4 0  7531
2 33105 066.0440 011.2161 0007883 268.5393 243.1282 12.80931347249812
